ONEWEB-0640             
1 55804U 23029J   26022.25644571  .00000316  00000+0  81802-3 0  9995
2 55804  87.9022 318.8392 0001899  53.3396 306.7908 13.14503754140249
ONEWEB-0641             
1 55805U 23029K   26022.30730510  .00000086  00000+0  18251-3 0  9993
2 55805  87.9245 333.9944 0001606  78.5429 281.5884 13.19726062139672
ONEWEB-0642             
1 55806U 23029L   26022.30256067  .00000113  00000+0  25094-3 0  9998
2 55806  87.9233 334.0138 0000909  80.5179 279.6057 13.19726100139669
ONEWEB-0643             
1 55807U 23029M   26022.22629541 -.00000083  00000+0 -25850-3 0  9999
2 55807  87.9028 318.8316 0001087  89.6822 270.4433 13.14504279140219
ONEWEB-0644             
1 55808U 23029N   26022.29782336  .00000156  00000+0  35809-3 0  9993
2 55808  87.9231 334.0234 0001401  82.4374 277.6918 13.19725252139663
ONEWEB-0645             
1 55809U 23029P   26022.24411499  .00000083  00000+0  17459-3 0  9998
2 55809  87.9226 334.0267 0001410  62.7257 297.4019 13.19727496139658
ONEWEB-0646             
1 55810U 23029Q   26022.26148889  .00000157  00000+0  35986-3 0  9999
2 55810  87.9240 334.0191 0001494  80.8503 279.2798 13.19727770139645
ONEWEB-0648             
1 55811U 23029R   26022.27069723  .00000406  00000+0  10611-2 0  9994
2 55811  87.9029 318.7860 0001050  45.0411 315.0804 13.14505296140227
ONEWEB-0649             
1 55812U 23029S   26022.28676956  .00000146  00000+0  33220-3 0  9991
2 55812  87.9241 334.0108 0001431  72.6397 287.4892 13.19725826139687
ONEWEB-0650             
1 55813U 23029T   26022.28202313  .00000156  00000+0  35732-3 0  9995
2 55813  87.9236 334.0161 0001303  77.6018 282.5261 13.19727189139651
ONEWEB-0652             
1 55814U 23029U   26022.25168308  .00000180  00000+0  45060-3 0  9990
2 55814  87.9020 318.8082 0001889  79.2151 280.9191 13.14504206140193
ONEWEB-0653             
1 55815U 23029V   26022.23582241 -.00000051  00000+0 -17171-3 0  9996
2 55815  87.9027 318.8005 0001895  74.6067 285.5272 13.14503894140225
ONEWEB-0654             
1 55816U 23029W   26022.23106139 -.00000097  00000+0 -29491-3 0  9993
2 55816  87.9028 318.8011 0002093  78.6301 281.5064 13.14503925140242
ONEWEB-0656             
1 55817U 23029X   26022.22075783  .00000138  00000+0  30682-3 0  9991
2 55817  87.9230 303.5510 0002114  78.0766 282.0604 13.20772726141887
ONEWEB-0657             
1 55818U 23029Y   26021.89819448  .00000229  00000+0  54040-3 0  9993
2 55818  87.9226 334.0921 0002143  99.2059 260.9316 13.19720588139610
ONEWEB-0658             
1 55819U 23029Z   26021.89346911  .00000102  00000+0  22146-3 0  9996
2 55819  87.9247 334.0539 0001341  81.4780 278.6505 13.19725327139625
ONEWEB-0660             
1 55820U 23029AA  26022.20886938  .00000143  00000+0  35160-3 0  9997
2 55820  87.9038 318.7878 0001631  68.7190 291.4113 13.14503116140226
