[{"OBJECT_NAME":"ONEWEB-0640","OBJECT_ID":"2023-029J","EPOCH":"2026-01-22T06:09:16.909344","MEAN_MOTION":13.14503754,"ECCENTRICITY":0.00018998,"INCLINATION":87.9022,"RA_OF_ASC_NODE":318.8392,"ARG_OF_PERICENTER":53.3396,"MEAN_ANOMALY":306.7908,"EPHEMERIS_TYPE":0,"CLASSIFICATION_TYPE":"U","NORAD_CAT_ID":55804,"ELEMENT_SET_NO":999,"REV_AT_EPOCH":14024,"BSTAR":0.0008180156,"MEAN_MOTION_DOT":3.16e-6,"MEAN_MOTION_DDOT":0},{"OBJECT_NAME":"ONEWEB-0641","OBJECT_ID":"2023-029K","EPOCH":"2026-01-22T07:22:31.160640","MEAN_MOTION":13.19726062,"ECCENTRICITY":0.00016068,"INCLINATION":87.9245,"RA_OF_ASC_NODE":333.9944,"ARG_OF_PERICENTER":78.5429,"MEAN_ANOMALY":281.5884,"EPHEMERIS_TYPE":0,"CLASSIFICATION_TYPE":"U","NORAD_CAT_ID":55805,"ELEMENT_SET_NO":999,"REV_AT_EPOCH":13967,"BSTAR":0.0001825149,"MEAN_MOTION_DOT":8.6e-7,"MEAN_MOTION_DDOT":0},{"OBJECT_NAME":"ONEWEB-0642","OBJECT_ID":"2023-029L","EPOCH":"2026-01-22T07:15:41.241888","MEAN_MOTION":13.197261,"ECCENTRICITY":9.096e-5,"INCLINATION":87.9233,"RA_OF_ASC_NODE":334.0138,"ARG_OF_PERICENTER":80.5179,"MEAN_ANOMALY":279.6057,"EPHEMERIS_TYPE":0,"CLASSIFICATION_TYPE":"U","NORAD_CAT_ID":55806,"ELEMENT_SET_NO":999,"REV_AT_EPOCH":13966,"BSTAR":0.0002509368,"MEAN_MOTION_DOT":1.13e-6,"MEAN_MOTION_DDOT":0},{"OBJECT_NAME":"ONEWEB-0643","OBJECT_ID":"2023-029M","EPOCH":"2026-01-22T05:25:51.923424","MEAN_MOTION":13.14504279,"ECCENTRICITY":0.00010874,"INCLINATION":87.9028,"RA_OF_ASC_NODE":318.8316,"ARG_OF_PERICENTER":89.6822,"MEAN_ANOMALY":270.4433,"EPHEMERIS_TYPE":0,"CLASSIFICATION_TYPE":"U","NORAD_CAT_ID":55807,"ELEMENT_SET_NO":999,"REV_AT_EPOCH":14021,"BSTAR":-0.00025850037,"MEAN_MOTION_DOT":-8.3e-7,"MEAN_MOTION_DDOT":0},{"OBJECT_NAME":"ONEWEB-0644","OBJECT_ID":"2023-029N","EPOCH":"2026-01-22T07:08:51.938304","MEAN_MOTION":13.19725252,"ECCENTRICITY":0.00014015,"INCLINATION":87.9231,"RA_OF_ASC_NODE":334.0234,"ARG_OF_PERICENTER":82.4374,"MEAN_ANOMALY":277.6918,"EPHEMERIS_TYPE":0,"CLASSIFICATION_TYPE":"U","NORAD_CAT_ID":55808,"ELEMENT_SET_NO":999,"REV_AT_EPOCH":13966,"BSTAR":0.00035809126,"MEAN_MOTION_DOT":1.56e-6,"MEAN_MOTION_DDOT":0},{"OBJECT_NAME":"ONEWEB-0645","OBJECT_ID":"2023-029P","EPOCH":"2026-01-22T05:51:31.535136","MEAN_MOTION":13.19727496,"ECCENTRICITY":0.000141,"INCLINATION":87.9226,"RA_OF_ASC_NODE":334.0267,"ARG_OF_PERICENTER":62.7257,"MEAN_ANOMALY":297.4019,"EPHEMERIS_TYPE":0,"CLASSIFICATION_TYPE":"U","NORAD_CAT_ID":55809,"ELEMENT_SET_NO":999,"REV_AT_EPOCH":13965,"BSTAR":0.00017459274,"MEAN_MOTION_DOT":8.3e-7,"MEAN_MOTION_DDOT":0},{"OBJECT_NAME":"ONEWEB-0646","OBJECT_ID":"2023-029Q","EPOCH":"2026-01-22T06:16:32.640096","MEAN_MOTION":13.1972777,"ECCENTRICITY":0.00014941,"INCLINATION":87.924,"RA_OF_ASC_NODE":334.0191,"ARG_OF_PERICENTER":80.8503,"MEAN_ANOMALY":279.2798,"EPHEMERIS_TYPE":0,"CLASSIFICATION_TYPE":"U","NORAD_CAT_ID":55810,"ELEMENT_SET_NO":999,"REV_AT_EPOCH":13964,"BSTAR":0.00035986307,"MEAN_MOTION_DOT":1.57e-6,"MEAN_MOTION_DDOT":0},{"OBJECT_NAME":"ONEWEB-0648","OBJECT_ID":"2023-029R","EPOCH":"2026-01-22T06:29:48.240672","MEAN_MOTION":13.14505296,"ECCENTRICITY":0.00010501,"INCLINATION":87.9029,"RA_OF_ASC_NODE":318.786,"ARG_OF_PERICENTER":45.0411,"MEAN_ANOMALY":315.0804,"EPHEMERIS_TYPE":0,"CLASSIFICATION_TYPE":"U","NORAD_CAT_ID":55811,"ELEMENT_SET_NO":999,"REV_AT_EPOCH":14022,"BSTAR":0.0010611437,"MEAN_MOTION_DOT":4.06e-6,"MEAN_MOTION_DDOT":0},{"OBJECT_NAME":"ONEWEB-0649","OBJECT_ID":"2023-029S","EPOCH":"2026-01-22T06:52:56.889984","MEAN_MOTION":13.19725826,"ECCENTRICITY":0.00014312,"INCLINATION":87.9241,"RA_OF_ASC_NODE":334.0108,"ARG_OF_PERICENTER":72.6397,"MEAN_ANOMALY":287.4892,"EPHEMERIS_TYPE":0,"CLASSIFICATION_TYPE":"U","NORAD_CAT_ID":55812,"ELEMENT_SET_NO":999,"REV_AT_EPOCH":13968,"BSTAR":0.0003321992,"MEAN_MOTION_DOT":1.46e-6,"MEAN_MOTION_DDOT":0},{"OBJECT_NAME":"ONEWEB-0650","OBJECT_ID":"2023-029T","EPOCH":"2026-01-22T06:46:06.798432","MEAN_MOTION":13.19727189,"ECCENTRICITY":0.00013034,"INCLINATION":87.9236,"RA_OF_ASC_NODE":334.0161,"ARG_OF_PERICENTER":77.6018,"MEAN_ANOMALY":282.5261,"EPHEMERIS_TYPE":0,"CLASSIFICATION_TYPE":"U","NORAD_CAT_ID":55813,"ELEMENT_SET_NO":999,"REV_AT_EPOCH":13965,"BSTAR":0.00035731575,"MEAN_MOTION_DOT":1.56e-6,"MEAN_MOTION_DDOT":0},{"OBJECT_NAME":"ONEWEB-0652","OBJECT_ID":"2023-029U","EPOCH":"2026-01-22T06:02:25.418112","MEAN_MOTION":13.14504206,"ECCENTRICITY":0.00018891,"INCLINATION":87.902,"RA_OF_ASC_NODE":318.8082,"ARG_OF_PERICENTER":79.2151,"MEAN_ANOMALY":280.9191,"EPHEMERIS_TYPE":0,"CLASSIFICATION_TYPE":"U","NORAD_CAT_ID":55814,"ELEMENT_SET_NO":999,"REV_AT_EPOCH":14019,"BSTAR":0.00045060222,"MEAN_MOTION_DOT":1.8e-6,"MEAN_MOTION_DDOT":0},{"OBJECT_NAME":"ONEWEB-0653","OBJECT_ID":"2023-029V","EPOCH":"2026-01-22T05:39:35.056224","MEAN_MOTION":13.14503894,"ECCENTRICITY":0.0001895,"INCLINATION":87.9027,"RA_OF_ASC_NODE":318.8005,"ARG_OF_PERICENTER":74.6067,"MEAN_ANOMALY":285.5272,"EPHEMERIS_TYPE":0,"CLASSIFICATION_TYPE":"U","NORAD_CAT_ID":55815,"ELEMENT_SET_NO":999,"REV_AT_EPOCH":14022,"BSTAR":-0.00017171255,"MEAN_MOTION_DOT":-5.1e-7,"MEAN_MOTION_DDOT":0},{"OBJECT_NAME":"ONEWEB-0654","OBJECT_ID":"2023-029W","EPOCH":"2026-01-22T05:32:43.704096","MEAN_MOTION":13.14503925,"ECCENTRICITY":0.00020933,"INCLINATION":87.9028,"RA_OF_ASC_NODE":318.8011,"ARG_OF_PERICENTER":78.6301,"MEAN_ANOMALY":281.5064,"EPHEMERIS_TYPE":0,"CLASSIFICATION_TYPE":"U","NORAD_CAT_ID":55816,"ELEMENT_SET_NO":999,"REV_AT_EPOCH":14024,"BSTAR":-0.00029490831,"MEAN_MOTION_DOT":-9.7e-7,"MEAN_MOTION_DDOT":0},{"OBJECT_NAME":"ONEWEB-0656","OBJECT_ID":"2023-029X","EPOCH":"2026-01-22T05:17:53.476512","MEAN_MOTION":13.20772726,"ECCENTRICITY":0.00021142,"INCLINATION":87.923,"RA_OF_ASC_NODE":303.551,"ARG_OF_PERICENTER":78.0766,"MEAN_ANOMALY":282.0604,"EPHEMERIS_TYPE":0,"CLASSIFICATION_TYPE":"U","NORAD_CAT_ID":55817,"ELEMENT_SET_NO":999,"REV_AT_EPOCH":14188,"BSTAR":0.0003068219,"MEAN_MOTION_DOT":1.38e-6,"MEAN_MOTION_DDOT":0},{"OBJECT_NAME":"ONEWEB-0657","OBJECT_ID":"2023-029Y","EPOCH":"2026-01-21T21:33:24.003072","MEAN_MOTION":13.19720588,"ECCENTRICITY":0.00021438,"INCLINATION":87.9226,"RA_OF_ASC_NODE":334.0921,"ARG_OF_PERICENTER":99.2059,"MEAN_ANOMALY":260.9316,"EPHEMERIS_TYPE":0,"CLASSIFICATION_TYPE":"U","NORAD_CAT_ID":55818,"ELEMENT_SET_NO":999,"REV_AT_EPOCH":13961,"BSTAR":0.00054039558,"MEAN_MOTION_DOT":2.29e-6,"MEAN_MOTION_DDOT":0},{"OBJECT_NAME":"ONEWEB-0658","OBJECT_ID":"2023-029Z","EPOCH":"2026-01-21T21:26:35.731104","MEAN_MOTION":13.19725327,"ECCENTRICITY":0.00013417,"INCLINATION":87.9247,"RA_OF_ASC_NODE":334.0539,"ARG_OF_PERICENTER":81.478,"MEAN_ANOMALY":278.6505,"EPHEMERIS_TYPE":0,"CLASSIFICATION_TYPE":"U","NORAD_CAT_ID":55819,"ELEMENT_SET_NO":999,"REV_AT_EPOCH":13962,"BSTAR":0.00022146326,"MEAN_MOTION_DOT":1.02e-6,"MEAN_MOTION_DDOT":0},{"OBJECT_NAME":"ONEWEB-0660","OBJECT_ID":"2023-029AA","EPOCH":"2026-01-22T05:00:46.314432","MEAN_MOTION":13.14503116,"ECCENTRICITY":0.00016316,"INCLINATION":87.9038,"RA_OF_ASC_NODE":318.7878,"ARG_OF_PERICENTER":68.719,"MEAN_ANOMALY":291.4113,"EPHEMERIS_TYPE":0,"CLASSIFICATION_TYPE":"U","NORAD_CAT_ID":55820,"ELEMENT_SET_NO":999,"REV_AT_EPOCH":14022,"BSTAR":0.00035160448,"MEAN_MOTION_DOT":1.43e-6,"MEAN_MOTION_DDOT":0}]
